[{"OBJECT_NAME":"STARLINK-3941","OBJECT_ID":"2022-052AS","EPOCH":"2026-03-09T20:00:03.329568","MEAN_MOTION":15.08843185,"ECCENTRICITY":0.00013416,"INCLINATION":53.2163,"RA_OF_ASC_NODE":268.4809,"ARG_OF_PERICENTER":90.3772,"MEAN_ANOMALY":269.7374,"EPHEMERIS_TYPE":0,"CLASSIFICATION_TYPE":"U","NORAD_CAT_ID":52638,"ELEMENT_SET_NO":999,"REV_AT_EPOCH":21182,"BSTAR":9.719511e-6,"MEAN_MOTION_DOT":-1.33e-6,"MEAN_MOTION_DDOT":0},{"OBJECT_NAME":"OBJECT K","OBJECT_ID":"2017-042K","EPOCH":"2026-03-09T21:28:20.621568","MEAN_MOTION":15.07994228,"ECCENTRICITY":0.00097557,"INCLINATION":97.4104,"RA_OF_ASC_NODE":233.8721,"ARG_OF_PERICENTER":49.2775,"MEAN_ANOMALY":310.9299,"EPHEMERIS_TYPE":0,"CLASSIFICATION_TYPE":"U","NORAD_CAT_ID":42834,"ELEMENT_SET_NO":999,"REV_AT_EPOCH":47201,"BSTAR":0.00042776846,"MEAN_MOTION_DOT":6.528e-5,"MEAN_MOTION_DDOT":0}]
